     2.10           N: GPS NAV DATA                         RINEX VERSION / TYPE
teqc  2009Mar23     gpsops              20100721 00:09:27UTCPGM / RUN BY / DATE
Linux 2.4.20-8|Pentium IV|gcc -static|Linux|486/DX+         COMMENT
soc2rnx ver 1.20    gpsops              21-Jul-2010 00:09:17COMMENT
Forced Modulo Decimation to 30 seconds                      COMMENT
ABPO                                    MARKER NAME         COMMENT
33302M001                               MARKER NUMBER       COMMENT
4097216.6805 4429119.0287 -2065771.3676                     COMMENT
                                                            COMMENT
This data is provided as a public service by NASA/JPL.      COMMENT
No warranty is expressed or implied regarding suitability   COMMENT
for use.  For further information, contact:                 COMMENT
Dave Stowers, NASA/JPL m/s 238-600                          COMMENT
4800 Oak Grove Drive, Pasadena CA 91109 USA                 COMMENT
                                                            END OF HEADER
15 10  7 20 20  0  0.0-2.366006374359D-04 6.025402399246D-12 0.000000000000D+00
    8.900000000000D+01 4.096875000000D+01 4.702695886160D-09 8.650082532372D-01
    2.181157469749D-06 2.541943569668D-03 2.652406692505D-06 5.153786983490D+03
    2.448000000000D+05 9.126961231232D-08 4.430239068897D-01 7.450580596924D-09
    9.534583327838D-01 3.244062500000D+02-1.780616648459D-01-8.350704983239D-09
    1.332198348551D-10 1.000000000000D+00 1.593000000000D+03 0.000000000000D+00
    2.000000000000D+00 0.000000000000D+00-9.778887033463D-09 8.900000000000D+01
    2.376000000000D+05
18 10  7 20 20  0  0.0 8.202157914639D-05 2.273736754432D-12 0.000000000000D+00
    3.500000000000D+01 1.080625000000D+02 4.557689846076D-09 2.896800793941D+00
    5.515292286873D-06 1.169326319359D-02 8.229166269302D-06 5.153717208862D+03
    2.448000000000D+05 5.960464477539D-08-5.651663473897D-01-1.210719347000D-07
    9.367384182294D-01 2.075312500000D+02-2.318286654722D+00-7.904257815494D-09
   -1.071473202588D-11 1.000000000000D+00 1.593000000000D+03 0.000000000000D+00
    2.000000000000D+00 0.000000000000D+00-1.071020960808D-08 3.500000000000D+01
    2.376000000000D+05
21 10  7 20 20  0  0.0-7.531279698014D-05-2.614797267597D-12 0.000000000000D+00
    5.400000000000D+01 1.075000000000D+01 5.053424781140D-09-2.267589329626D+00
    3.650784492493D-07 1.675744866952D-02 8.163973689079D-06 5.153651807785D+03
    2.448000000000D+05 1.676380634308D-07-1.621815865449D+00-1.937150955200D-07
    9.320127144591D-01 2.050625000000D+02-2.458699407431D+00-7.976046520067D-09
   -2.950122884460D-10 1.000000000000D+00 1.593000000000D+03 0.000000000000D+00
    2.000000000000D+00 0.000000000000D+00-1.210719347000D-08 5.400000000000D+01
    2.376000000000D+05
22 10  7 20 20  0  0.0 1.670578494668D-04-7.958078640513D-13 0.000000000000D+00
    7.400000000000D+01 1.065000000000D+02 4.788770900101D-09 1.980540961298D+00
    5.515292286873D-06 5.493684788235D-03 8.108094334602D-06 5.153723772049D+03
    2.448000000000D+05 2.235174179077D-08-5.603709238697D-01-1.583248376846D-07
    9.344244929080D-01 2.080937500000D+02-1.942960279660D+00-8.161054226381D-09
   -2.321525272275D-11 1.000000000000D+00 1.593000000000D+03 0.000000000000D+00
    2.000000000000D+00 0.000000000000D+00-1.769512891769D-08 7.400000000000D+01
    2.376000000000D+05
24 10  7 20 20  0  0.0 3.060568124056D-04 3.183231456205D-12 0.000000000000D+00
    1.000000000000D+02 1.503125000000D+01 4.800557105330D-09 1.012836135388D+00
    6.668269634247D-07 5.693151499145D-03 8.242204785347D-06 5.154822719574D+03
    2.448000000000D+05 1.583248376846D-07-1.582342578897D+00 7.450580596924D-09
    9.486176963176D-01 2.105625000000D+02-4.520536926622D-01-8.020334079107D-09
   -5.289506043444D-10 1.000000000000D+00 1.593000000000D+03 0.000000000000D+00
    4.000000000000D+00 0.000000000000D+00-1.396983861923D-09 1.000000000000D+02
    2.376000000000D+05
25 10  7 20 20  0  0.0-1.878151670098D-05-2.955857780762D-12 0.000000000000D+00
    1.660000000000D+02-5.371875000000D+01 4.491615665250D-09 2.122397934530D+00
   -2.816319465637D-06 9.261382510886D-04 9.432435035706D-06 5.156007644653D+03
    2.448000000000D+05 1.303851604462D-08 2.539465492211D+00-3.166496753693D-08
    9.603508508334D-01 1.950937500000D+02 2.116599515357D+00-7.896043187607D-09
    3.296565886630D-10 1.000000000000D+00 1.593000000000D+03 0.000000000000D+00
    4.000000000000D+00 6.300000000000D+01 4.656612873077D-09 1.660000000000D+02
    2.376000000000D+05
26 10  7 20 20  0  0.0-8.461112156510D-05-6.252776074689D-12 0.000000000000D+00
    4.000000000000D+01 3.165625000000D+01 4.024810506656D-09-2.089156940858D-01
    1.780688762665D-06 1.934024190996D-02 3.401190042496D-06 5.152381362915D+03
    2.448000000000D+05-6.891787052155D-08 5.272704976069D-01 2.309679985046D-07
    9.903816112208D-01 3.351875000000D+02 1.105795730134D+00-8.323918153174D-09
    1.596495071856D-10 1.000000000000D+00 1.593000000000D+03 0.000000000000D+00
    2.000000000000D+00 0.000000000000D+00-6.053596735001D-09 4.000000000000D+01
    2.376000000000D+05
27 10  7 20 20  0  0.0 1.719915308058D-04 3.524291969370D-12 0.000000000000D+00
    3.500000000000D+01-8.159375000000D+01 4.309822378544D-09 1.048037506580D+00
   -4.647299647331D-06 2.152294537518D-02 5.364418029785D-06 5.153606163025D+03
    2.448000000000D+05-2.067536115646D-07 1.455473928457D+00-4.563480615616D-07
    9.786460955552D-01 2.915000000000D+02-1.396179099641D+00-8.256415341411D-09
   -1.214336296267D-11 1.000000000000D+00 1.593000000000D+03 0.000000000000D+00
    2.000000000000D+00 0.000000000000D+00-4.190951585770D-09 3.500000000000D+01
    2.376000000000D+05
30 10  7 20 19 59 44.0 2.622674219310D-04 3.296918293927D-12 0.000000000000D+00
    5.000000000000D+00-6.156250000000D+01 4.502330397276D-09 2.521394024216D+00
   -3.268942236900D-06 1.246009615716D-02 9.292736649513D-06 5.153714881897D+03
    2.447840000000D+05 1.024454832077D-07 2.511246318872D+00-1.192092895508D-07
    9.569723351561D-01 1.937812500000D+02 1.494324640962D+00-7.717464320509D-09
    2.767972440020D-10 1.000000000000D+00 1.593000000000D+03 0.000000000000D+00
    2.000000000000D+00 0.000000000000D+00-7.916241884232D-09 5.000000000000D+00
    2.376000000000D+05
29 10  7 20 20  0  0.0 1.359493471682D-04 2.614797267597D-12 0.000000000000D+00
    8.200000000000D+01-6.000000000000D+00 4.733411451301D-09-2.119599296173D+00
   -4.321336746216D-07 2.896315651014D-03 6.958842277527D-06 5.153698541641D+03
    2.448000000000D+05 1.862645149231D-09-2.649116143989D+00 7.636845111847D-08
    9.608485458044D-01 2.443750000000D+02-1.263501782287D+00-7.935687696103D-09
    2.178662178596D-11 1.000000000000D+00 1.593000000000D+03 0.000000000000D+00
    2.000000000000D+00 0.000000000000D+00-8.847564458847D-09 8.200000000000D+01
    2.413800000000D+05
31 10  7 20 20  0  0.0-2.316152676940D-05 2.614797267597D-12 0.000000000000D+00
    9.900000000000D+01-1.022500000000D+02 4.295178911442D-09-1.381565516481D+00
   -5.235895514488D-06 7.325308746658D-03 5.571171641350D-06 5.153730543137D+03
    2.448000000000D+05-1.676380634308D-07 1.511269673739D+00-5.587935447693D-09
    9.771616974498D-01 2.854687500000D+02-1.050715910627D+00-8.101408884770D-09
   -1.321483616526D-11 1.000000000000D+00 1.593000000000D+03 0.000000000000D+00
    2.000000000000D+00 0.000000000000D+00-1.303851604462D-08 9.900000000000D+01
    2.443800000000D+05
 9 10  7 20 22  0  0.0 1.947628334165D-05 2.273736754432D-12 0.000000000000D+00
    7.600000000000D+01-7.206250000000D+01 4.165173496195D-09-1.037772347932D+00
   -3.470107913017D-06 1.717786455993D-02 5.209818482399D-06 5.153710081100D+03
    2.520000000000D+05-2.421438694000D-07 1.480567773351D+00 2.328306436539D-07
    9.809940673691D-01 2.961250000000D+02 1.535800678457D+00-8.194269895661D-09
    4.107313943255D-11 1.000000000000D+00 1.593000000000D+03 0.000000000000D+00
    2.000000000000D+00 0.000000000000D+00-5.587935447693D-09 7.600000000000D+01
    2.448000000000D+05
12 10  7 20 22  0  0.0-9.154854342341D-05 3.979039320257D-12 0.000000000000D+00
    7.400000000000D+01-5.303125000000D+01 4.363753196408D-09-3.550098500767D-01
   -2.762302756310D-06 3.430275013670D-03 9.186565876007D-06 5.153652284622D+03
    2.520000000000D+05 1.117587089539D-08 2.565612853171D+00-5.401670932770D-08
    9.716808353670D-01 2.101562500000D+02-3.726583109202D-01-7.846041104820D-09
    3.743013054375D-10 1.000000000000D+00 1.593000000000D+03 0.000000000000D+00
    2.000000000000D+00 0.000000000000D+00-1.164153218269D-08 7.400000000000D+01
    2.448000000000D+05
14 10  7 20 22  0  0.0 6.992230191827D-05 4.092726157978D-12 0.000000000000D+00
    5.100000000000D+01 4.037500000000D+01 3.920877606005D-09 2.044101722139D+00
    2.227723598480D-06 5.274840979837D-03 2.786517143250D-06 5.153763105392D+03
    2.520000000000D+05-9.313225746155D-08 5.087359458199D-01-1.862645149231D-07
    9.859066896452D-01 3.363125000000D+02-2.146401437321D+00-8.017833974968D-09
    1.864363372504D-10 1.000000000000D+00 1.593000000000D+03 0.000000000000D+00
    2.000000000000D+00 0.000000000000D+00-8.847564458847D-09 5.100000000000D+01
    2.448000000000D+05
18 10  7 20 22  0  0.0 8.203834295273D-05 2.273736754432D-12 0.000000000000D+00
    7.800000000000D+01 8.906250000000D+01 4.659836958056D-09-2.336290225763D+00
    4.606321454048D-06 1.169623737223D-02 7.735565304756D-06 5.153711534500D+03
    2.520000000000D+05 2.235174179077D-08-5.652229403756D-01-1.136213541031D-07
    9.367382968072D-01 2.192500000000D+02-2.318224290524D+00-7.880328247302D-09
   -4.250177036933D-11 1.000000000000D+00 1.593000000000D+03 0.000000000000D+00
    2.000000000000D+00 0.000000000000D+00-1.071020960808D-08 7.800000000000D+01
    2.448000000000D+05
